METHANESAT              
1 59101U 24043D   26083.08983965  .00003279  00000+0  28496-3 0  9998
2 59101  97.8293 213.8031 0009343 294.9158  65.1092 14.97672224111911
GOSAT-GW (IBUKI GW)     
1 64694U 25141A   26065.03170321  .00001373  00000+0  25032-3 0  9996
2 64694  98.0504   4.0681 0001432  83.7436 276.3932 14.67569112 36718
GHGSAT-C1               
1 46278U 20061G   26083.24449905  .00032160  00000+0  32154-3 0  9991
2 46278  97.2132 165.9463 0001086  54.9609 305.1753 15.65539083310165
GHGSAT-C12              
1 64529U 25135B   26083.32547456  .00004396  00000+0  20909-3 0  9991
2 64529  97.4633 198.9731 0006538 107.3261 252.8690 15.19683689 41935
GHGSAT-C13              
1 64548U 25135W   26083.23715635  .00003726  00000+0  17438-3 0  9997
2 64548  97.4662 199.3297 0002514  75.3508 284.8005 15.20362550 41947
GHGSAT-C2               
1 47509U 21006DA  26083.13899410  .00007060  00000+0  19883-3 0  9992
2 47509  97.2261 131.8674 0006968 109.9121 250.2875 15.36732580286786
GHGSAT-C3               
1 52737U 22057F   26083.29718234  .00007466  00000+0  23529-3 0  9991
2 52737  97.6461 225.9090 0007105  70.3601 289.8407 15.33184386212528
GHGSAT-C4               
1 52746U 22057Q   26083.31691329  .00007260  00000+0  22895-3 0  9996
2 52746  97.6386 224.8469 0007100  57.4712 302.7214 15.33172281212539
GHGSAT-C5               
1 52744U 22057N   26083.33487416  .00007537  00000+0  23764-3 0  9999
2 52744  97.6552 227.4232 0008035  65.9400 294.2682 15.33162173212538
GHGSAT-C6               
1 56204U 23054AC  26083.26001868  .00014924  00000+0  26393-3 0  9996
2 56204  97.3107 351.7793 0007057   9.4456 350.6927 15.50393474165283
GHGSAT-C7               
1 56209U 23054AH  26083.24615358  .00011721  00000+0  22568-3 0  9996
2 56209  97.3059 350.6313 0007670   0.6435 359.4824 15.48011483165244
GHGSAT-C8               
1 56186U 23054J   26083.29564080  .00015211  00000+0  26885-3 0  9994
2 56186  97.3060 351.1976 0006177  37.8727 322.2958 15.50412097165276
SENTINEL-5P             
1 42969U 17064A   26083.12482304  .00000074  00000+0  55982-4 0  9994
2 42969  98.7901  25.8725 0001163  92.0766 268.0543 14.19502596437493
ENMAP                   
1 52159U 22033C   26083.29897334  .00000335  00000+0  57281-4 0  9993
2 52159  97.9774 166.7540 0001295 103.9815 256.1538 14.74984089214146
PRISMA                  
1 44072U 19015A   26083.29926286  .00001524  00000+0  19094-3 0  9993
2 44072  97.8685 159.3176 0001450  87.2842 272.8538 14.83658565379460
SENTINEL-2A             
1 40697U 15028A   26083.24971788  .00000197  00000+0  91884-4 0  9997
2 40697  98.5626 159.3286 0001298  97.0720 263.0611 14.30819147561585
SENTINEL-2B             
1 42063U 17013A   26083.31237228  .00000232  00000+0  10503-3 0  9992
2 42063  98.5680 159.2947 0001181  93.6445 266.4873 14.30813137472507
SENTINEL-2C             
1 60989U 24157A   26083.20753730  .00000141  00000+0  70552-4 0  9995
2 60989  98.5666 159.2121 0001024 114.8256 245.3033 14.30819533 80835
LANDSAT 8               
1 39084U 13008A   26083.28691357  .00000404  00000+0  99642-4 0  9997
2 39084  98.1893 154.7711 0001206  92.5098 267.6238 14.57123782685533
LANDSAT 9               
1 49260U 21088A   26083.18403952  .00000426  00000+0  10447-3 0  9991
2 49260  98.1914 154.7346 0001195  93.4137 266.7198 14.57111926238625
TANAGER-1               
1 60507U 24149AR  26083.21470996  .00015752  00000+0  35236-3 0  9996
2 60507  97.3814 176.8034 0007348 229.6549 130.4058 15.43543315 89923
